STARLINK-1369
1 25541C 20025L   21325.11439233 -.00000076  00000-0 -50643-5 0  3258
2 25541  53.0531 312.7189 0001833  64.1467 337.8099 15.06405138    15
